{"type": "FeatureCollection", "features": [ {"type": "Feature", "properties": {"norad_id": 34409, "name": "COSMOS 2251 DEB", "group": "cosmos-2251-debris", "lat": 73.86768978981117, "lon": 0.22424141825548188, "alt_km": 699.308467441736, "timestamp": "2025-12-27T07:26:25.614804+00:00", "meta": {"OBJECT_NAME": "COSMOS 2251 DEB", "OBJECT_ID": "1993-036RA", "EPOCH": "2025-12-26T13:43:20.964288", "MEAN_MOTION": 14.58060964, "ECCENTRICITY": 0.0080461, "INCLINATION": 74.0637, "RA_OF_ASC_NODE": 280.5674, "ARG_OF_PERICENTER": 351.315, "MEAN_ANOMALY": 181.8118, "EPHEMERIS_TYPE": 0, "CLASSIFICATION_TYPE": "U", "NORAD_CAT_ID": 34409, "ELEMENT_SET_NO": 999, "REV_AT_EPOCH": 89394, "BSTAR": 0.00027355, "MEAN_MOTION_DOT": 1.284e-05, "MEAN_MOTION_DDOT": 0}, "tle": {"line1": "1 34409U 93036RA  25360.57177042  .00001284  00000+0  27355-3 0  9999", "line2": "2 34409  74.0637 280.5674 0080461 351.3150 181.8118 14.58060964893942"}}, "geometry": {"type": "Point", "coordinates": [0.22424141825548188, 73.86768978981117]}}, {"type": "Feature", "properties": {"norad_id": 34410, "name": "COSMOS 2251 DEB", "group": "cosmos-2251-debris", "lat": 63.365726103433595, "lon": 15.060815658213016, "alt_km": 487.62698766424546, "timestamp": "2025-12-27T07:26:25.614814+00:00", "meta": {"OBJECT_NAME": "COSMOS 2251 DEB", "OBJECT_ID": "1993-036RB", "EPOCH": "2025-12-26T15:17:57.460704", "MEAN_MOTION": 15.20204778, "ECCENTRICITY": 0.0021247, "INCLINATION": 73.7358, "RA_OF_ASC_NODE": 232.0969, "ARG_OF_PERICENTER": 70.7601, "MEAN_ANOMALY": 321.2169, "EPHEMERIS_TYPE": 0, "CLASSIFICATION_TYPE": "U", "NORAD_CAT_ID": 34410, "ELEMENT_SET_NO": 999, "REV_AT_EPOCH": 89985, "BSTAR": 0.0022532, "MEAN_MOTION_DOT": 0.00049424, "MEAN_MOTION_DDOT": 0}, "tle": {"line1": "1 34410U 93036RB  25360.63747061  .00049424  00000+0  22532-2 0  9991", "line2": "2 34410  73.7358 232.0969 0021247  70.7601 321.2169 15.20204778899854"}}, "geometry": {"type": "Point", "coordinates": [15.060815658213016, 63.365726103433595]}}, {"type": "Feature", "properties": {"norad_id": 34412, "name": "COSMOS 2251 DEB", "group": "cosmos-2251-debris", "lat": 73.8791784099546, "lon": 32.252751303134254, "alt_km": 663.256398744441, "timestamp": "2025-12-27T07:26:25.614824+00:00", "meta": {"OBJECT_NAME": "COSMOS 2251 DEB", "OBJECT_ID": "1993-036RD", "EPOCH": "2025-12-26T19:25:16.122432", "MEAN_MOTION": 14.47323465, "ECCENTRICITY": 0.0187736, "INCLINATION": 73.9484, "RA_OF_ASC_NODE": 298.1477, "ARG_OF_PERICENTER": 29.9912, "MEAN_ANOMALY": 331.184, "EPHEMERIS_TYPE": 0, "CLASSIFICATION_TYPE": "U", "NORAD_CAT_ID": 34412, "ELEMENT_SET_NO": 999, "REV_AT_EPOCH": 87854, "BSTAR": 0.001938156, "MEAN_MOTION_DOT": 8.837e-05, "MEAN_MOTION_DDOT": 0}, "tle": {"line1": "1 34412U 93036RD  25360.80921438  .00008837  00000+0  19382-2 0  9996", "line2": "2 34412  73.9484 298.1477 0187736  29.9912 331.1840 14.47323465878544"}}, "geometry": {"type": "Point", "coordinates": [32.252751303134254, 73.8791784099546]}}, {"type": "Feature", "properties": {"norad_id": 34413, "name": "COSMOS 2251 DEB", "group": "cosmos-2251-debris", "lat": -5.04522714553409, "lon": -123.03428982648606, "alt_km": 749.4046107853974, "timestamp": "2025-12-27T07:26:25.614834+00:00", "meta": {"OBJECT_NAME": "COSMOS 2251 DEB", "OBJECT_ID": "1993-036RE", "EPOCH": "2025-12-26T23:08:10.312800", "MEAN_MOTION": 14.2920222, "ECCENTRICITY": 0.00909361, "INCLINATION": 74.0305, "RA_OF_ASC_NODE": 239.0426, "ARG_OF_PERICENTER": 312.892, "MEAN_ANOMALY": 61.7139, "EPHEMERIS_TYPE": 0, "CLASSIFICATION_TYPE": "U", "NORAD_CAT_ID": 34413, "ELEMENT_SET_NO": 999, "REV_AT_EPOCH": 87334, "BSTAR": 0.0014241588, "MEAN_MOTION_DOT": 3.757e-05, "MEAN_MOTION_DDOT": 0}, "tle": {"line1": "1 34413U 93036RE  25360.96400825  .00003757  00000+0  14242-2 0  9992", "line2": "2 34413  74.0305 239.0426 0090936 312.8920  61.7139 14.29202220873340"}}, "geometry": {"type": "Point", "coordinates": [-123.03428982648606, -5.04522714553409]}}, {"type": "Feature", "properties": {"norad_id": 34420, "name": "COSMOS 2251 DEB", "group": "cosmos-2251-debris", "lat": -19.108874385557925, "lon": 70.08355492752581, "alt_km": 733.339187029861, "timestamp": "2025-12-27T07:26:25.614845+00:00", "meta": {"OBJECT_NAME": "COSMOS 2251 DEB", "OBJECT_ID": "1993-036RM", "EPOCH": "2025-12-26T22:15:18.154944", "MEAN_MOTION": 14.68339395, "ECCENTRICITY": 0.01059478, "INCLINATION": 74.0332, "RA_OF_ASC_NODE": 76.5163, "ARG_OF_PERICENTER": 194.2682, "MEAN_ANOMALY": 283.0106, "EPHEMERIS_TYPE": 0, "CLASSIFICATION_TYPE": "U", "NORAD_CAT_ID": 34420, "ELEMENT_SET_NO": 999, "REV_AT_EPOCH": 89978, "BSTAR": 0.00024855093, "MEAN_MOTION_DOT": 1.528e-05, "MEAN_MOTION_DDOT": 0}, "tle": {"line1": "1 34420U 93036RM  25360.92729346  .00001528  00000+0  24855-3 0  9994", "line2": "2 34420  74.0332  76.5163 0105947 194.2682 283.0106 14.68339395899782"}}, "geometry": {"type": "Point", "coordinates": [70.08355492752581, -19.108874385557925]}}, {"type": "Feature", "properties": {"norad_id": 34425, "name": "COSMOS 2251 DEB", "group": "cosmos-2251-debris", "lat": 68.58925938672415, "lon": 159.63074873400916, "alt_km": 666.9015240931494, "timestamp": "2025-12-27T07:26:25.614855+00:00", "meta": {"OBJECT_NAME": "COSMOS 2251 DEB", "OBJECT_ID": "1993-036RS", "EPOCH": "2025-12-26T11:15:36.344160", "MEAN_MOTION": 14.62199982, "ECCENTRICITY": 0.0024045, "INCLINATION": 74.0192, "RA_OF_ASC_NODE": 28.199, "ARG_OF_PERICENTER": 150.6925, "MEAN_ANOMALY": 209.5597, "EPHEMERIS_TYPE": 0, "CLASSIFICATION_TYPE": "U", "NORAD_CAT_ID": 34425, "ELEMENT_SET_NO": 999, "REV_AT_EPOCH": 88941, "BSTAR": 0.00053248, "MEAN_MOTION_DOT": 2.663e-05, "MEAN_MOTION_DDOT": 0}, "tle": {"line1": "1 34425U 93036RS  25360.46917065  .00002663  00000+0  53248-3 0  9994", "line2": "2 34425  74.0192  28.1990 0024045 150.6925 209.5597 14.62199982889413"}}, "geometry": {"type": "Point", "coordinates": [159.63074873400916, 68.58925938672415]}}, {"type": "Feature", "properties": {"norad_id": 34429, "name": "COSMOS 2251 DEB", "group": "cosmos-2251-debris", "lat": 13.127125081397008, "lon": -47.67114563160257, "alt_km": 431.95917487210136, "timestamp": "2025-12-27T07:26:25.614865+00:00", "meta": {"OBJECT_NAME": "COSMOS 2251 DEB", "OBJECT_ID": "1993-036RW", "EPOCH": "2025-12-26T10:48:12.272256", "MEAN_MOTION": 15.47930745, "ECCENTRICITY": 0.0014469, "INCLINATION": 73.9685, "RA_OF_ASC_NODE": 138.062, "ARG_OF_PERICENTER": 342.8367, "MEAN_ANOMALY": 73.0284, "EPHEMERIS_TYPE": 0, "CLASSIFICATION_TYPE": "U", "NORAD_CAT_ID": 34429, "ELEMENT_SET_NO": 999, "REV_AT_EPOCH": 89660, "BSTAR": 0.0055636, "MEAN_MOTION_DOT": 0.00302726, "MEAN_MOTION_DDOT": 0}, "tle": {"line1": "1 34429U 93036RW  25360.45014204  .00302726  00000+0  55636-2 0  9995", "line2": "2 34429  73.9685 138.0620 0014469 342.8367  73.0284 15.47930745896607"}}, "geometry": {"type": "Point", "coordinates": [-47.67114563160257, 13.127125081397008]}}, {"type": "Feature", "properties": {"norad_id": 34430, "name": "COSMOS 2251 DEB", "group": "cosmos-2251-debris", "lat": 32.006220192194895, "lon": 86.18366055317357, "alt_km": 799.1017398376925, "timestamp": "2025-12-27T07:26:25.614875+00:00", "meta": {"OBJECT_NAME": "COSMOS 2251 DEB", "OBJECT_ID": "1993-036RX", "EPOCH": "2025-12-26T20:45:22.396320", "MEAN_MOTION": 14.39674283, "ECCENTRICITY": 0.00609563, "INCLINATION": 74.0518, "RA_OF_ASC_NODE": 277.3003, "ARG_OF_PERICENTER": 343.6903, "MEAN_ANOMALY": 16.2288, "EPHEMERIS_TYPE": 0, "CLASSIFICATION_TYPE": "U", "NORAD_CAT_ID": 34430, "ELEMENT_SET_NO": 999, "REV_AT_EPOCH": 88158, "BSTAR": 0.00047321315, "MEAN_MOTION_DOT": 1.487e-05, "MEAN_MOTION_DDOT": 0}, "tle": {"line1": "1 34430U 93036RX  25360.86484255  .00001487  00000+0  47321-3 0  9992", "line2": "2 34430  74.0518 277.3003 0060956 343.6903  16.2288 14.39674283881581"}}, "geometry": {"type": "Point", "coordinates": [86.18366055317357, 32.006220192194895]}}, {"type": "Feature", "properties": {"norad_id": 34431, "name": "COSMOS 2251 DEB", "group": "cosmos-2251-debris", "lat": -19.179303102079988, "lon": -25.474718157100565, "alt_km": 782.9073389589184, "timestamp": "2025-12-27T07:26:25.614885+00:00", "meta": {"OBJECT_NAME": "COSMOS 2251 DEB", "OBJECT_ID": "1993-036RY", "EPOCH": "2025-12-26T18:45:05.506272", "MEAN_MOTION": 14.28823679, "ECCENTRICITY": 0.00676145, "INCLINATION": 74.0742, "RA_OF_ASC_NODE": 149.7823, "ARG_OF_PERICENTER": 131.7166, "MEAN_ANOMALY": 228.9795, "EPHEMERIS_TYPE": 0, "CLASSIFICATION_TYPE": "U", "NORAD_CAT_ID": 34431, "ELEMENT_SET_NO": 999, "REV_AT_EPOCH": 87343, "BSTAR": 0.00079020531, "MEAN_MOTION_DOT": 2.017e-05, "MEAN_MOTION_DDOT": 0}, "tle": {"line1": "1 34431U 93036RY  25360.78131373  .00002017  00000+0  79021-3 0  9996", "line2": "2 34431  74.0742 149.7823 0067614 131.7166 228.9795 14.28823679873431"}}, "geometry": {"type": "Point", "coordinates": [-25.474718157100565, -19.179303102079988]}}, {"type": "Feature", "properties": {"norad_id": 34432, "name": "COSMOS 2251 DEB", "group": "cosmos-2251-debris", "lat": -63.09027028168197, "lon": 41.784281035365815, "alt_km": 981.9122443837477, "timestamp": "2025-12-27T07:26:25.614896+00:00", "meta": {"OBJECT_NAME": "COSMOS 2251 DEB", "OBJECT_ID": "1993-036RZ", "EPOCH": "2025-12-26T15:14:50.828928", "MEAN_MOTION": 14.02963413, "ECCENTRICITY": 0.0181171, "INCLINATION": 73.8285, "RA_OF_ASC_NODE": 77.8425, "ARG_OF_PERICENTER": 158.3242, "MEAN_ANOMALY": 325.6108, "EPHEMERIS_TYPE": 0, "CLASSIFICATION_TYPE": "U", "NORAD_CAT_ID": 34432, "ELEMENT_SET_NO": 999, "REV_AT_EPOCH": 85879, "BSTAR": 0.0011584, "MEAN_MOTION_DOT": 2.053e-05, "MEAN_MOTION_DDOT": 0}, "tle": {"line1": "1 34432U 93036RZ  25360.63531052  .00002053  00000+0  11584-2 0  9998", "line2": "2 34432  73.8285  77.8425 0181171 158.3242 325.6108 14.02963413858793"}}, "geometry": {"type": "Point", "coordinates": [41.784281035365815, -63.09027028168197]}}]}